IRIDIUM 116             
1 43072U 17083C   24093.10952505  .00000119  00000+0  35307-4 0  9992
2 43072  86.3922 298.8970 0002051  84.4643 275.6787 14.34213445328633
IRIDIUM 130             
1 43073U 17083D   24092.86850911  .00000135  00000+0  40977-4 0  9990
2 43073  86.3933 299.1952 0002254  89.0659 271.0795 14.34214336328542
IRIDIUM 151             
1 43074U 17083E   24093.05244473  .00000130  00000+0  39316-4 0  9993
2 43074  86.3924 298.9605 0001722  95.0542 265.0851 14.34214779328594
IRIDIUM 134             
1 43075U 17083F   24092.81142290  .00000116  00000+0  34222-4 0  9996
2 43075  86.3925 299.0585 0002293  87.1603 272.9856 14.34214429328526
IRIDIUM 153             
1 43078U 17083J   24092.76994115  .00000207  00000+0  66874-4 0  9993
2 43078  86.3917 267.4564 0002151 105.2527 254.8907 14.34216891329696
